KUZGTU 1 (RS47S)        
1 57217U 23091AV  26198.24567623  .00006357  00000+0  21798-3 0  9998
2 57217  97.5045 263.0430 0009869 358.8343   1.2872 15.30497124168975
SONATE-2                
1 59112U 24043Q   26197.96844803  .00027689  00000+0  33135-3 0  9997
2 59112  97.5562 350.2475 0006798 100.9069 259.2953 15.60926983132533
MESAT1                  
1 60209U 24125G   26198.03200085  .00046933  00000+0  44705-3 0  9992
2 60209  97.2242  56.2634 0010854 106.5662 253.6792 15.66606856114239
OOV-CUBE (TUBSAT-30)    
1 60240U 24128F   26198.06347753  .00000952  00000+0  85234-4 0  9991
2 60240  61.9940 121.3870 0040878 140.4347 219.9741 15.02878305110605
COLIBRI-S (RS67S)       
1 61746U 24199M   26198.30757641  .00012886  00000+0  24019-3 0  9991
2 61746  97.2941  72.4556 0009227 155.0627 205.1072 15.48907417142070
HORS 3 (RS81S)          
1 61753U 24199U   26198.31459878  .00023959  00000+0  33244-3 0  9994
2 61753  97.2925  74.7944 0007352 149.5261 210.6423 15.57011509142243
HORS 4 (RS82S)          
1 61754U 24199V   26198.30479447  .00032903  00000+0  36957-3 0  9991
2 61754  97.2864  76.1977 0007226 142.1852 217.9915 15.62534678142343
SIT-2086                
1 61764U 24199AF  26198.26511707  .00023798  00000+0  35386-3 0  9990
2 61764  97.2880  75.1158 0008435 138.3764 221.8134 15.55119958139103
HYPERVIEW 1G (RS66S)    
1 61772U 24199AP  26198.26055371  .00180565  00000+0  72147-3 0  9991
2 61772  97.2777  79.7086 0008263 143.6666 216.5167 15.86054053139426
ALTAIR (RS65S)          
1 61779U 24199AW  26198.31456529  .00006227  00000+0  17096-3 0  9998
2 61779  97.2985  67.4717 0012271 188.6464 171.4571 15.37534253141745
ASRTU-1 (AO-123)        
1 61781U 24199AY  26198.26492945  .00004129  00000+0  11952-3 0  9991
2 61781  97.2956  66.6667 0013231 192.9866 167.1039 15.36071433138542
SAMSAT-IONOSPHERE (RS7*)
1 61784U 24199BB  26198.22749238  .00030048  00000+0  36819-3 0  9998
2 61784  97.2888  74.8731 0009450 153.8078 206.3659 15.60259339142247
RTU MIREA 1 (RS51S)     
1 61785U 24199BC  26198.30644149  .00040122  00000+0  41703-3 0  9995
2 61785  97.2872  75.9572 0009532 148.6762 211.5067 15.64458981139176
TEVEL2-4                
1 63213U 25052D   26198.16635712  .00010121  00000+0  29456-3 0  9999
2 63213  97.3861  94.6235 0003412  48.0092 312.1442 15.35610547 74716
TEVEL2-5                
1 63214U 25052E   26197.66900195  .00011058  00000+0  32363-3 0  9995
2 63214  97.3862  94.0641 0003463  50.3372 309.8177 15.35411833 74632
TEVEL2-6                
1 63215U 25052F   26197.68200909  .00010715  00000+0  31404-3 0  9998
2 63215  97.3866  94.0622 0003510  52.4001 307.7561 15.35376184 74634
TEVEL2-1                
1 63217U 25052H   26197.65645366  .00010686  00000+0  31887-3 0  9999
2 63217  97.3837  93.6246 0004184  57.2220 302.9426 15.34805085 74616
TEVEL2-3                
1 63218U 25052J   26198.17150676  .00009845  00000+0  29333-3 0  9991
2 63218  97.3842  94.1664 0003827  58.5238 301.6379 15.34878538 74693
TEVEL2-2                
1 63219U 25052K   26198.17814142  .00009935  00000+0  29646-3 0  9994
2 63219  97.3834  94.1498 0004154  56.3906 303.7733 15.34826667 74695
OTP-2                   
1 63235U 25052AB  26197.63886863  .00003806  00000+0  15834-3 0  9996
2 63235  97.3829  89.6315 0008122  67.1870 293.0224 15.24348189 74359
TEVEL2-9                
1 63237U 25052AD  26197.67279632  .00010133  00000+0  32238-3 0  9990
2 63237  97.3899  92.9536 0007556  53.0535 307.1398 15.32762164 74544
TEVEL2-7                
1 63238U 25052AE  26198.17666353  .00008943  00000+0  28760-3 0  9998
2 63238  97.3898  93.3596 0007602  51.1945 308.9975 15.32453102 74618
TEVEL2-8                
1 63239U 25052AF  26197.66282234  .00009609  00000+0  30904-3 0  9997
2 63239  97.3904  92.8233 0007710  54.0583 306.1374 15.32429153 74532
INNOSAT 16 (RS92S7)     
1 64878U 25155C   26198.23883781  .00003028  00000+0  12133-3 0  9992
2 64878  97.4587 165.2807 0012454  82.2777 277.9875 15.25751099 85252
GEOSCAN 6 (RS92S6)      
1 64879U 25155D   26198.19250491  .00005434  00000+0  18564-3 0  9991
2 64879  97.4578 166.8755 0009911  76.5104 283.7241 15.30677141 85350
GEOSCAN 1 (RS92S1)      
1 64880U 25155E   26198.24805639  .00005968  00000+0  19959-3 0  9990
2 64880  97.4574 167.1066 0009822  76.5120 283.7215 15.31328088 85373
239ALFEROV (RS61S)      
1 64881U 25155F   26198.23814835  .00008098  00000+0  25059-3 0  9993
2 64881  97.4573 167.7631 0009536  76.6671 283.5635 15.33705326 85416
GEOSCAN 2 (RS92S2)      
1 64890U 25155Q   26198.30191865  .00005686  00000+0  18884-3 0  9990
2 64890  97.4572 167.3249 0008938  66.7950 293.4232 15.31585894 85395
GEOSCAN 5 (RS92S5)      
1 64891U 25155R   26198.22106005  .00007643  00000+0  23449-3 0  9992
2 64891  97.4566 167.8947 0008585  81.1800 279.0414 15.34009365 85425
GEOSCAN 4 (RS92S4)      
1 64892U 25155S   26198.20210136  .00008285  00000+0  25261-3 0  9999
2 64892  97.4570 167.9330 0008512  81.6263 278.5945 15.34178083 85423
