OBJECT_NAME,OBJECT_ID,EPOCH,MEAN_MOTION,ECCENTRICITY,INCLINATION,RA_OF_ASC_NODE,ARG_OF_PERICENTER,MEAN_ANOMALY,EPHEMERIS_TYPE,CLASSIFICATION_TYPE,NORAD_CAT_ID,ELEMENT_SET_NO,REV_AT_EPOCH,BSTAR,MEAN_MOTION_DOT,MEAN_MOTION_DDOT
KUZGTU 1 (RS47S),2023-091AV,2026-07-17T05:53:46.426272,15.30497124,.00098697,97.5045,263.0430,358.8343,1.2872,0,U,57217,999,16897,.21798445E-3,.6357E-4,0
SONATE-2,2024-043Q,2026-07-16T23:14:33.909792,15.60926983,.00067987,97.5562,350.2475,100.9069,259.2953,0,U,59112,999,13253,.33134763E-3,.27689E-3,0
MESAT1,2024-125G,2026-07-17T00:46:04.873440,15.66606856,.00108547,97.2242,56.2634,106.5662,253.6792,0,U,60209,999,11423,.44705183E-3,.46933E-3,0
OOV-CUBE (TUBSAT-30),2024-128F,2026-07-17T01:31:24.458592,15.02878305,.00408781,61.9940,121.3870,140.4347,219.9741,0,U,60240,999,11060,.85234402E-4,.952E-5,0
COLIBRI-S (RS67S),2024-199M,2026-07-17T07:22:54.601824,15.48907417,.00092272,97.2941,72.4556,155.0627,205.1072,0,U,61746,999,14207,.24018509E-3,.12886E-3,0
HORS 3 (RS81S),2024-199U,2026-07-17T07:33:01.334592,15.57011509,.00073527,97.2925,74.7944,149.5261,210.6423,0,U,61753,999,14224,.33244332E-3,.23959E-3,0
HORS 4 (RS82S),2024-199V,2026-07-17T07:18:54.242208,15.62534678,.00072261,97.2864,76.1977,142.1852,217.9915,0,U,61754,999,14234,.36956559E-3,.32903E-3,0
SIT-2086,2024-199AF,2026-07-17T06:21:46.114848,15.55119958,.00084356,97.2880,75.1158,138.3764,221.8134,0,U,61764,999,13910,.35386486E-3,.23798E-3,0
HYPERVIEW 1G (RS66S),2024-199AP,2026-07-17T06:15:11.840544,15.86054053,.00082638,97.2777,79.7086,143.6666,216.5167,0,U,61772,999,13942,.72146566E-3,.180565E-2,0
ALTAIR (RS65S),2024-199AW,2026-07-17T07:32:58.441056,15.37534253,.00122717,97.2985,67.4717,188.6464,171.4571,0,U,61779,999,14174,.17095765E-3,.6227E-4,0
ASRTU-1 (AO-123),2024-199AY,2026-07-17T06:21:29.904480,15.36071433,.00132318,97.2956,66.6667,192.9866,167.1039,0,U,61781,999,13854,.11952311E-3,.4129E-4,0
SAMSAT-IONOSPHERE (RS75S),2024-199BB,2026-07-17T05:27:35.341632,15.60259339,.00094504,97.2888,74.8731,153.8078,206.3659,0,U,61784,999,14224,.36819243E-3,.30048E-3,0
RTU MIREA 1 (RS51S),2024-199BC,2026-07-17T07:21:16.544736,15.64458981,.00095323,97.2872,75.9572,148.6762,211.5067,0,U,61785,999,13917,.41702573E-3,.40122E-3,0
TEVEL2-4,2025-052D,2026-07-17T03:59:33.255168,15.35610547,.0003412,97.3861,94.6235,48.0092,312.1442,0,U,63213,999,7471,.29456246E-3,.10121E-3,0
TEVEL2-5,2025-052E,2026-07-16T16:03:21.768480,15.35411833,.00034631,97.3862,94.0641,50.3372,309.8177,0,U,63214,999,7463,.32362702E-3,.11058E-3,0
TEVEL2-6,2025-052F,2026-07-16T16:22:05.585376,15.35376184,.00035104,97.3866,94.0622,52.4001,307.7561,0,U,63215,999,7463,.31403904E-3,.10715E-3,0
TEVEL2-1,2025-052H,2026-07-16T15:45:17.596224,15.34805085,.00041841,97.3837,93.6246,57.2220,302.9426,0,U,63217,999,7461,.31886821E-3,.10686E-3,0
TEVEL2-3,2025-052J,2026-07-17T04:06:58.184064,15.34878538,.00038276,97.3842,94.1664,58.5238,301.6379,0,U,63218,999,7469,.29333104E-3,.9845E-4,0
TEVEL2-2,2025-052K,2026-07-17T04:16:31.418688,15.34826667,.0004154,97.3834,94.1498,56.3906,303.7733,0,U,63219,999,7469,.2964562E-3,.9935E-4,0
OTP-2,2025-052AB,2026-07-16T15:19:58.249632,15.24348189,.0008122,97.3829,89.6315,67.1870,293.0224,0,U,63235,999,7435,.15834E-3,.3806E-4,0
TEVEL2-9,2025-052AD,2026-07-16T16:08:49.602048,15.32762164,.00075566,97.3899,92.9536,53.0535,307.1398,0,U,63237,999,7454,.32238013E-3,.10133E-3,0
TEVEL2-7,2025-052AE,2026-07-17T04:14:23.728992,15.32453102,.00076022,97.3898,93.3596,51.1945,308.9975,0,U,63238,999,7461,.28759837E-3,.8943E-4,0
TEVEL2-8,2025-052AF,2026-07-16T15:54:27.850176,15.32429153,.00077106,97.3904,92.8233,54.0583,306.1374,0,U,63239,999,7453,.30904259E-3,.9609E-4,0
INNOSAT 16 (RS92S7),2025-155C,2026-07-17T05:43:55.586784,15.25751099,.0012454,97.4587,165.2807,82.2777,277.9875,0,U,64878,999,8525,.12133325E-3,.3028E-4,0
GEOSCAN 6 (RS92S6),2025-155D,2026-07-17T04:37:12.424224,15.30677141,.00099114,97.4578,166.8755,76.5104,283.7241,0,U,64879,999,8535,.18564215E-3,.5434E-4,0
GEOSCAN 1 (RS92S1),2025-155E,2026-07-17T05:57:12.072096,15.31328088,.00098225,97.4574,167.1066,76.5120,283.7215,0,U,64880,999,8537,.19958737E-3,.5968E-4,0
239ALFEROV (RS61S),2025-155F,2026-07-17T05:42:56.017440,15.33705326,.00095364,97.4573,167.7631,76.6671,283.5635,0,U,64881,999,8541,.25058843E-3,.8098E-4,0
GEOSCAN 2 (RS92S2),2025-155Q,2026-07-17T07:14:45.771360,15.31585894,.00089389,97.4572,167.3249,66.7950,293.4232,0,U,64890,999,8539,.18883943E-3,.5686E-4,0
GEOSCAN 5 (RS92S5),2025-155R,2026-07-17T05:18:19.588320,15.34009365,.00085854,97.4566,167.8947,81.1800,279.0414,0,U,64891,999,8542,.23449064E-3,.7643E-4,0
GEOSCAN 4 (RS92S4),2025-155S,2026-07-17T04:51:01.557504,15.34178083,.00085123,97.4570,167.9330,81.6263,278.5945,0,U,64892,999,8542,.2526146E-3,.8285E-4,0
